NORAD_CAT_ID,OBJECT_NAME,OBJECT_TYPE,EPOCH,MEAN_MOTION,ECCENTRICITY,INCLINATION,RA_OF_ASC_NODE,ARG_OF_PERICENTER,MEAN_ANOMALY,BSTAR,MEAN_MOTION_DOT,MEAN_MOTION_DDOT,TLE_LINE0,TLE_LINE1,TLE_LINE2,SEMIMAJOR_AXIS,PERIOD,APOGEE,PERIGEE,DECAYED
53971.0,STARLINK-4639,PAYLOAD,2023-02-09 22:23:31,15.08847681,0.0001248,53.2165,228.8188,81.7325,278.3808,0.00039472,6.001e-05,0.0,0 STARLINK-4639,1 53971U 22125H   23040.93300333  .00006001  00000-0  39472-3 0  9995,2 53971  53.2165 228.8188 0001248  81.7325 278.3808 15.08847681 19674,6917.857,95.437,540.585,538.859,0.0
53971.0,STARLINK-4639,PAYLOAD,2023-02-10 20:38:55,15.08845405,0.0001123,53.216,224.6523,73.9609,286.1507,0.00029654,4.435e-05,0.0,0 STARLINK-4639,1 53971U 22125H   23041.86036431  .00004435  00000-0  29654-3 0  9993,2 53971  53.2160 224.6523 0001123  73.9609 286.1507 15.08845405 19817,6917.864,95.437,540.506,538.952,0.0
53971.0,STARLINK-4639,PAYLOAD,2023-02-11 04:35:51,15.08840023,0.0001241,53.2168,223.1641,69.7488,290.3637,0.00028194,4.202e-05,0.0,0 STARLINK-4639,1 53971U 22125H   23042.19156713  .00004202  00000-0  28194-3 0  9996,2 53971  53.2168 223.1641 0001241  69.7488 290.3637 15.08840023 19934,6917.88,95.438,540.604,538.887,0.0
53971.0,STARLINK-4639,PAYLOAD,2023-02-11 10:57:24,15.08837569,0.000122,53.216,221.9765,71.8593,288.2532,6.8202e-05,7.98e-06,0.0,0 STARLINK-4639,1 53971U 22125H   23042.45652822  .00000798  00000-0  68202-4 0  9998,2 53971  53.2160 221.9765 0001220  71.8593 288.2532 15.08837569 19905,6917.888,95.438,540.597,538.909,0.0
53971.0,STARLINK-4639,PAYLOAD,2023-02-11 20:29:42,15.08845765,0.0001295,53.2157,220.193,70.8144,289.2988,0.00028004,4.172e-05,0.0,0 STARLINK-4639,1 53971U 22125H   23042.85396518  .00004172  00000-0  28004-3 0  9994,2 53971  53.2157 220.1930 0001295  70.8144 289.2988 15.08845765 19968,6917.863,95.437,540.624,538.832,0.0
53971.0,STARLINK-4639,PAYLOAD,2023-02-12 10:48:11,15.08835965,0.0001477,53.2156,217.5167,71.7784,288.3369,5.3331e-05,5.61e-06,0.0,0 STARLINK-4639,1 53971U 22125H   23043.45013104  .00000561  00000-0  53331-4 0  9998,2 53971  53.2156 217.5167 0001477  71.7784 288.3369 15.08835965 20125,6917.893,95.438,540.779,538.736,0.0
53971.0,STARLINK-4639,PAYLOAD,2023-02-12 12:23:34,15.08836686,0.0001332,53.2154,217.2193,72.4671,287.6467,1.918e-06,-2.57e-06,0.0,0 STARLINK-4639,1 53971U 22125H   23043.51636977 -.00000257  00000-0  19180-5 0  9992,2 53971  53.2154 217.2193 0001332  72.4671 287.6467 15.08836686 20067,6917.891,95.438,540.677,538.834,0.0
53971.0,STARLINK-4639,PAYLOAD,2023-02-13 12:14:21,15.08838503,0.0001265,53.2156,212.7592,79.9296,280.1839,7.8159e-05,9.56e-06,0.0,0 STARLINK-4639,1 53971U 22125H   23044.50997174  .00000956  00000-0  78159-4 0  9996,2 53971  53.2156 212.7592 0001265  79.9296 280.1839 15.08838503 20210,6917.885,95.438,540.625,538.875,0.0
53971.0,STARLINK-4639,PAYLOAD,2023-02-13 13:49:44,15.08841407,0.0001249,53.2164,212.462,83.0809,277.0325,0.0001357,1.873e-05,0.0,0 STARLINK-4639,1 53971U 22125H   23044.57621041  .00001873  00000-0  13570-3 0  9994,2 53971  53.2164 212.4620 0001249  83.0809 277.0325 15.08841407 20296,6917.876,95.437,540.605,538.877,0.0
53971.0,STARLINK-4639,PAYLOAD,2023-02-14 12:05:08,15.08837237,0.0001314,53.2168,208.2995,82.5193,277.5948,0.000112,1.495e-05,0.0,0 STARLINK-4639,1 53971U 22125H   23045.50357393  .00001495  00000-0  11200-3 0  9992,2 53971  53.2168 208.2995 0001314  82.5193 277.5948 15.08837237 20439,6917.889,95.438,540.663,538.845,0.0
53971.0,STARLINK-4639,PAYLOAD,2023-02-14 13:40:31,15.08839546,0.0001378,53.2173,208.0026,81.0832,279.0316,0.00013178,1.81e-05,0.0,0 STARLINK-4639,1 53971U 22125H   23045.56981280  .00001810  00000-0  13178-3 0  9993,2 53971  53.2173 208.0026 0001378  81.0832 279.0316 15.08839546 20376,6917.882,95.438,540.7,538.793,0.0
53971.0,STARLINK-4639,PAYLOAD,2023-02-15 13:31:18,15.0884123,0.0001459,53.2164,203.5426,82.9003,277.2155,7.8963e-05,9.69e-06,0.0,0 STARLINK-4639,1 53971U 22125H   23046.56341192  .00000969  00000-0  78963-4 0  9994,2 53971  53.2164 203.5426 0001459  82.9003 277.2155 15.08841230 20521,6917.877,95.437,540.751,538.732,0.0
53971.0,STARLINK-4639,PAYLOAD,2023-02-15 19:52:50,15.08857992,0.000122,53.2164,202.3521,86.1054,274.0078,0.00029465,4.407e-05,0.0,0 STARLINK-4639,1 53971U 22125H   23046.82836179  .00004407  00000-0  29465-3 0  9990,2 53971  53.2164 202.3521 0001220  86.1054 274.0078 15.08857992 20635,6917.825,95.436,540.534,538.846,0.0
53971.0,STARLINK-4639,PAYLOAD,2023-02-16 10:11:19,15.08838671,0.0001134,53.2165,199.6772,83.7676,276.3445,7.5e-05,9.06e-06,0.0,0 STARLINK-4639,1 53971U 22125H   23047.42453105  .00000906  00000-0  75000-4 0  9998,2 53971  53.2165 199.6772 0001134  83.7676 276.3445 15.08838671 20725,6917.884,95.438,540.534,538.965,0.0
53971.0,STARLINK-4639,PAYLOAD,2023-02-16 13:22:05,15.0884305,0.0001225,53.2165,199.0825,89.8828,270.2304,0.00012107,1.64e-05,0.0,0 STARLINK-4639,1 53971U 22125H   23047.55700860  .00001640  00000-0  12107-3 0  9999,2 53971  53.2165 199.0825 0001225  89.8828 270.2304 15.08843050 20673,6917.871,95.437,540.584,538.889,0.0
53971.0,STARLINK-4639,PAYLOAD,2023-02-16 18:08:14,15.08851765,0.0001647,53.2159,198.1876,110.1235,249.9935,0.00018032,2.584e-05,0.0,0 STARLINK-4639,1 53971U 22125H   23047.75572261  .00002584  00000-0  18032-3 0  9994,2 53971  53.2159 198.1876 0001647 110.1235 249.9935 15.08851765 20776,6917.844,95.437,540.849,538.57,0.0
53971.0,STARLINK-4639,PAYLOAD,2023-02-16 21:18:59,15.08865842,0.0001042,53.2169,197.5953,97.6642,262.4469,0.00038984,5.926e-05,0.0,0 STARLINK-4639,1 53971U 22125H   23047.88819388  .00005926  00000-0  38984-3 0  9993,2 53971  53.2169 197.5953 0001042  97.6642 262.4469 15.08865842 20724,6917.801,95.436,540.387,538.946,0.0
53971.0,STARLINK-4639,PAYLOAD,2023-02-17 13:12:52,15.08837775,0.0001198,53.2169,194.6223,100.0423,260.0705,-1.5262e-05,-5.31e-06,0.0,0 STARLINK-4639,1 53971U 22125H   23048.55060839 -.00000531  00000-0 -15262-4 0  9991,2 53971  53.2169 194.6223 0001198 100.0423 260.0705 15.08837775 20822,6917.887,95.438,540.581,538.923,0.0
53971.0,STARLINK-4639,PAYLOAD,2023-02-17 17:59:01,15.08846327,0.0001262,53.2168,193.73,105.2311,254.882,7.2991e-05,8.74e-06,0.0,0 STARLINK-4639,1 53971U 22125H   23048.74932365  .00000874  00000-0  72991-4 0  9994,2 53971  53.2168 193.7300 0001262 105.2311 254.8820 15.08846327 20925,6917.861,95.437,540.599,538.853,0.0
53971.0,STARLINK-4639,PAYLOAD,2023-02-17 21:09:47,15.0885298,8.96e-05,53.216,193.1339,94.6439,265.4656,0.00049116,7.54e-05,0.0,0 STARLINK-4639,1 53971U 22125H   23048.88180236  .00007540  00000-0  49116-3 0  9990,2 53971  53.2160 193.1339 0000896  94.6439 265.4656 15.08852980 20878,6917.841,95.437,540.326,539.086,0.0
53971.0,STARLINK-4639,PAYLOAD,2023-02-18 11:28:17,15.08816066,6.6e-05,53.2177,190.4571,96.6795,263.4273,0.00035331,5.336e-05,0.0,0 STARLINK-4639,1 53971U 22125H   23049.47797587  .00005336  00000-0  35331-3 0  9994,2 53971  53.2177 190.4571 0000660  96.6795 263.4273 15.08816066 21037,6917.954,95.439,540.275,539.362,0.0
53971.0,STARLINK-4639,PAYLOAD,2023-02-18 13:03:40,15.08822322,9.66e-05,53.2168,190.1611,78.4417,281.6683,0.00070946,0.00011016,0.0,0 STARLINK-4639,1 53971U 22125H   23049.54421731  .00011016  00000-0  70946-3 0  9990,2 53971  53.2168 190.1611 0000966  78.4417 281.6683 15.08822322 20978,6917.934,95.439,540.468,539.131,0.0
53971.0,STARLINK-4639,PAYLOAD,2023-02-19 01:46:45,15.08834571,9.09e-05,53.2165,187.7817,58.9292,301.1789,0.00091561,0.00014312,0.0,0 STARLINK-4639,1 53971U 22125H   23050.07414130  .00014312  00000-0  91561-3 0  9993,2 53971  53.2165 187.7817 0000909  58.9292 301.1789 15.08834571 21128,6917.897,95.438,540.391,539.133,0.0
53971.0,STARLINK-4639,PAYLOAD,2023-02-19 14:29:50,15.08855627,9.37e-05,53.2165,185.4027,58.4977,301.6106,0.0010954,0.00017196,0.0,0 STARLINK-4639,1 53971U 22125H   23050.60405832  .00017196  00000-0  10954-2 0  9990,2 53971  53.2165 185.4027 0000937  58.4977 301.6106 15.08855627 21136,6917.833,95.437,540.346,539.049,0.0
53971.0,STARLINK-4639,PAYLOAD,2023-02-19 19:15:59,15.08868616,9.81e-05,53.2166,184.5111,57.0189,303.0897,0.0014136,0.00022299,0.0,0 STARLINK-4639,1 53971U 22125H   23050.80277451  .00022299  00000-0  14136-2 0  9992,2 53971  53.2166 184.5111 0000981  57.0189 303.0897 15.08868616 21236,6917.793,95.436,540.337,538.979,0.0
53971.0,STARLINK-4639,PAYLOAD,2023-02-20 01:37:32,15.08849006,0.0001007,53.2173,183.3211,66.1557,293.9541,0.00053701,8.271e-05,0.0,0 STARLINK-4639,1 53971U 22125H   23051.06773691  .00008271  00000-0  53701-3 0  9994,2 53971  53.2173 183.3211 0001007  66.1557 293.9541 15.08849006 21271,6917.853,95.437,540.414,539.021,0.0
53971.0,STARLINK-4639,PAYLOAD,2023-02-20 14:20:37,15.08845086,0.0001297,53.2166,180.943,69.1102,291.0029,0.0011122,0.00017459,0.0,0 STARLINK-4639,1 53971U 22125H   23051.59765917  .00017459  00000-0  11122-2 0  9992,2 53971  53.2166 180.9430 0001297  69.1102 291.0029 15.08845086 21284,6917.865,95.437,540.627,538.833,0.0
53971.0,STARLINK-4639,PAYLOAD,2023-02-20 15:56:00,15.08844013,0.0001455,53.2168,180.646,68.8632,291.2516,0.0009632,0.00015076,0.0,0 STARLINK-4639,1 53971U 22125H   23051.66389946  .00015076  00000-0  96320-3 0  9991,2 53971  53.2168 180.6460 0001455  68.8632 291.2516 15.08844013 21367,6917.868,95.437,540.74,538.727,0.0
53971.0,STARLINK-4639,PAYLOAD,2023-02-21 07:49:52,15.08845363,9.26e-05,53.2164,177.6714,89.0551,271.0547,0.00088944,0.00013898,0.0,0 STARLINK-4639,1 53971U 22125H   23052.32629778  .00013898  00000-0  88944-3 0  9998,2 53971  53.2164 177.6714 0000926  89.0551 271.0547 15.08845363 21468,6917.864,95.437,540.37,539.088,0.0
53971.0,STARLINK-4639,PAYLOAD,2023-02-21 12:36:01,15.08859359,0.0001093,53.216,176.7801,76.7555,283.3559,0.001678,0.00026532,0.0,0 STARLINK-4639,1 53971U 22125H   23052.52501607  .00026532  00000-0  16780-2 0  9997,2 53971  53.2160 176.7801 0001093  76.7555 283.3559 15.08859359 21429,6917.821,95.436,540.442,538.93,0.0
